NORAD_CAT_ID,OBJECT_NAME,OBJECT_TYPE,EPOCH,MEAN_MOTION,ECCENTRICITY,INCLINATION,RA_OF_ASC_NODE,ARG_OF_PERICENTER,MEAN_ANOMALY,BSTAR,MEAN_MOTION_DOT,MEAN_MOTION_DDOT,TLE_LINE0,TLE_LINE1,TLE_LINE2,SEMIMAJOR_AXIS,PERIOD,APOGEE,PERIGEE,DECAYED
55650.0,STARLINK-5494,PAYLOAD,2023-05-18 10:31:40,15.69923161,0.0003399,69.9983,257.8296,264.9826,95.0982,1.3195e-05,1.374e-05,0.0,0 STARLINK-5494,1 55650U 23021Y   23138.43866853  .00001374  00000-0  13195-4 0  9997,2 55650  69.9983 257.8296 0003399 264.9826  95.0982 15.69923161 14626,6737.254,91.724,361.409,356.829,0.0
55650.0,STARLINK-5494,PAYLOAD,2023-05-19 07:56:15,15.69898945,0.0003181,69.9975,255.3204,253.2231,106.8616,-2.4583e-05,-3.164e-05,0.0,0 STARLINK-5494,1 55650U 23021Y   23139.33073606 -.00003164  00000-0 -24583-4 0  9997,2 55650  69.9975 255.3204 0003181 253.2231 106.8616 15.69898945 14760,6737.323,91.726,361.331,357.045,0.0
55650.0,STARLINK-5494,PAYLOAD,2023-05-19 10:59:15,15.70354347,0.0005817,70.0,254.9639,251.0154,109.0412,0.00049436,0.00060773,0.0,0 STARLINK-5494,1 55650U 23021Y   23139.45782185  .00060773  00000-0  49436-3 0  9999,2 55650  70.0000 254.9639 0005817 251.0154 109.0412 15.70354347 14783,6736.021,91.699,361.804,353.967,0.0
55650.0,STARLINK-5494,PAYLOAD,2023-05-20 06:00:00,15.6773072,0.0003249,70.0016,252.7429,266.5742,243.1348,-0.0091386,-0.00915717,0.0,0 STARLINK-5494,1 55650U 23021Y   23140.25001157 -.00915717  00000-0 -91386-2 0  9991,2 55650  70.0016 252.7429 0003249 266.5742 243.1348 15.67730720 14905,6743.534,91.853,367.59,363.208,0.0
55650.0,STARLINK-5494,PAYLOAD,2023-05-20 22:00:01,15.66435758,0.0003371,70.0011,250.8764,273.2539,36.3369,-0.01006,-0.009527,0.0,0 STARLINK-5494,1 55650U 23021Y   23140.91668981 -.00952700  00000-0 -10060-1 0  9990,2 55650  70.0011 250.8764 0003371 273.2539  36.3369 15.66435758  1303,6747.25,91.928,371.389,366.84,0.0
55650.0,STARLINK-5494,PAYLOAD,2023-05-21 06:00:00,15.65775987,0.0003509,70.0014,249.9447,269.8814,118.376,-0.0099615,-0.00921621,0.0,0 STARLINK-5494,1 55650U 23021Y   23141.25001157 -.00921621  00000-0 -99615-2 0  9996,2 55650  70.0014 249.9447 0003509 269.8814 118.3760 15.65775987 15067,6749.145,91.967,373.378,368.642,0.0
55650.0,STARLINK-5494,PAYLOAD,2023-05-21 12:01:40,15.66631619,0.0008448,69.9991,249.2511,296.3224,63.7102,-0.0020046,-0.00206225,0.0,0 STARLINK-5494,1 55650U 23021Y   23141.50116775 -.00206225  00000-0 -20046-2 0  9995,2 55650  69.9991 249.2511 0008448 296.3224  63.7102 15.66631619 15405,6746.687,91.917,374.252,362.853,0.0
55650.0,STARLINK-5494,PAYLOAD,2023-05-22 00:00:00,15.64281348,0.0003363,70.0011,247.8514,268.6213,23.9396,-0.010264,-0.00896791,0.0,0 STARLINK-5494,1 55650U 23021Y   23142.00001157 -.00896791  00000-0 -10264-1 0  9991,2 55650  70.0011 247.8514 0003363 268.6213  23.9396 15.64281348  1304,6753.443,92.055,377.58,373.037,0.0
55650.0,STARLINK-5494,PAYLOAD,2023-05-22 06:00:02,15.63821376,0.0003433,70.0011,247.1548,263.7103,356.1156,-0.010752,-0.00920226,0.0,0 STARLINK-5494,1 55650U 23021Y   23142.25002315 -.00920226  00000-0 -10752-1 0  9998,2 55650  70.0011 247.1548 0003433 263.7103 356.1156 15.63821376 15216,6754.768,92.082,378.952,374.314,0.0
55650.0,STARLINK-5494,PAYLOAD,2023-05-22 09:30:43,15.64988586,0.0002729,69.9986,246.7524,249.7687,110.3213,-0.0026344,-0.00251796,0.0,0 STARLINK-5494,1 55650U 23021Y   23142.39634041 -.00251796  00000-0 -26344-2 0  9994,2 55650  69.9986 246.7524 0002729 249.7687 110.3213 15.64988586 15549,6751.409,92.013,375.116,371.431,0.0
55650.0,STARLINK-5494,PAYLOAD,2023-05-22 22:00:00,15.62518017,0.0003481,70.0006,245.2993,271.8835,138.3121,-0.011669,-0.00946195,0.0,0 STARLINK-5494,1 55650U 23021Y   23142.91667824 -.00946195  00000-0 -11669-1 0  9994,2 55650  70.0006 245.2993 0003481 271.8835 138.3121 15.62518017  1309,6758.523,92.159,382.741,378.036,0.0
55650.0,STARLINK-5494,PAYLOAD,2023-05-23 06:00:00,15.61867801,0.0003469,70.001,244.3731,267.4016,216.8265,-0.011688,-0.00925944,0.0,0 STARLINK-5494,1 55650U 23021Y   23143.25001157 -.00925944  00000-0 -11688-1 0  9993,2 55650  70.0010 244.3731 0003469 267.4016 216.8265 15.61867801 15372,6760.399,92.197,384.609,379.919,0.0
55650.0,STARLINK-5494,PAYLOAD,2023-05-23 22:00:00,15.60565854,0.0003606,70.0003,242.5231,269.9602,0.0042,-0.012672,-0.00951949,0.0,0 STARLINK-5494,1 55650U 23021Y   23143.91667824 -.00951949  00000-0 -12672-1 0  9993,2 55650  70.0003 242.5231 0003606 269.9602   0.0042 15.60565854  1306,6764.158,92.274,388.463,383.584,0.0
55650.0,STARLINK-5494,PAYLOAD,2023-05-24 06:00:00,15.59910973,0.000371,70.0005,241.5996,266.5896,75.0636,-0.012634,-0.00927909,0.0,0 STARLINK-5494,1 55650U 23021Y   23144.25001157 -.00927909  00000-0 -12634-1 0  9999,2 55650  70.0005 241.5996 0003710 266.5896  75.0636 15.59910973 15534,6766.052,92.313,390.427,385.406,0.0
55650.0,STARLINK-5494,PAYLOAD,2023-05-24 22:00:00,15.58608886,0.00035,70.0,239.7551,273.6713,209.0268,-0.013665,-0.00952431,0.0,0 STARLINK-5494,1 55650U 23021Y   23144.91667824 -.00952431  00000-0 -13665-1 0  9994,2 55650  70.0000 239.7551 0003500 273.6713 209.0268 15.58608886  1305,6769.819,92.39,394.054,389.315,0.0
55650.0,STARLINK-5494,PAYLOAD,2023-05-25 14:00:01,15.57247999,0.0003416,70.0003,237.9144,273.5321,347.0917,-0.012723,-0.0085148,0.0,0 STARLINK-5494,1 55650U 23021Y   23145.58334491 -.00851480  00000-0 -12723-1 0  9995,2 55650  70.0003 237.9144 0003416 273.5321 347.0917 15.57247999 15735,6773.763,92.471,397.942,393.314,0.0
55650.0,STARLINK-5494,PAYLOAD,2023-05-26 00:00:02,15.56432745,0.0003412,70.0,236.7654,272.2417,163.0542,-0.013212,-0.00857145,0.0,0 STARLINK-5494,1 55650U 23021Y   23146.00002315 -.00857145  00000-0 -13212-1 0  9998,2 55650  70.0000 236.7654 0003412 272.2417 163.0542 15.56432745  1305,6776.128,92.519,400.305,395.681,0.0
55650.0,STARLINK-5494,PAYLOAD,2023-05-26 06:00:00,15.56010743,0.0003444,70.0001,236.0769,269.3795,126.0008,-0.015045,-0.00951219,0.0,0 STARLINK-5494,1 55650U 23021Y   23146.25001157 -.00951219  00000-0 -15045-1 0  9991,2 55650  70.0001 236.0769 0003444 269.3795 126.0008 15.56010743 15847,6777.353,92.544,401.552,396.884,0.0
55650.0,STARLINK-5494,PAYLOAD,2023-05-26 14:00:01,15.55302291,0.0003251,70.0002,235.1594,276.9735,184.6434,-0.013954,-0.00867115,0.0,0 STARLINK-5494,1 55650U 23021Y   23146.58334491 -.00867115  00000-0 -13954-1 0  9995,2 55650  70.0002 235.1594 0003251 276.9735 184.6434 15.55302291  1308,6779.411,92.587,403.48,399.072,0.0
55650.0,STARLINK-5494,PAYLOAD,2023-05-26 22:00:01,15.54673913,0.0003143,69.9999,234.2428,274.4253,252.6872,-0.01524,-0.00920051,0.0,0 STARLINK-5494,1 55650U 23021Y   23146.91668981 -.00920051  00000-0 -15240-1 0  9995,2 55650  69.9999 234.2428 0003143 274.4253 252.6872 15.54673913 15942,6781.238,92.624,405.234,400.971,0.0
55650.0,STARLINK-5494,PAYLOAD,2023-05-27 22:00:00,15.52707902,0.0003341,69.9999,231.4988,270.1848,88.4771,-0.016063,-0.0090418,0.0,0 STARLINK-5494,1 55650U 23021Y   23147.91667824 -.00904180  00000-0 -16063-1 0  9990,2 55650  69.9999 231.4988 0003341 270.1848  88.4771 15.52707902  1295,6786.961,92.741,411.093,406.558,0.0
55650.0,STARLINK-5494,PAYLOAD,2023-05-28 06:00:00,15.52081264,0.0003404,70.0003,230.5861,266.677,154.275,-0.016748,-0.0092005,0.0,0 STARLINK-5494,1 55650U 23021Y   23148.25001157 -.00920050  00000-0 -16748-1 0  9993,2 55650  70.0003 230.5861 0003404 266.6770 154.2750 15.52081264 16154,6788.787,92.779,412.963,408.341,0.0
55650.0,STARLINK-5494,PAYLOAD,2023-05-28 14:00:01,15.51243728,0.0003414,70.0003,229.6742,272.0184,210.4879,-0.00055182,-0.00032469,0.0,0 STARLINK-5494,1 55650U 23021Y   23148.58334491 -.00032469  00000-0 -55182-3 0  9994,2 55650  70.0003 229.6742 0003414 272.0184 210.4879 15.51243728 16209,6791.231,92.829,415.414,410.777,0.0
55650.0,STARLINK-5494,PAYLOAD,2023-05-28 22:00:00,15.51232291,0.0003436,70.0001,228.7624,269.498,273.9287,-0.0004644,-0.00027358,0.0,0 STARLINK-5494,1 55650U 23021Y   23148.91667824 -.00027358  00000-0 -46440-3 0  9998,2 55650  70.0001 228.7624 0003436 269.4980 273.9287 15.51232291  1309,6791.264,92.829,415.463,410.796,0.0
55650.0,STARLINK-5494,PAYLOAD,2023-05-29 14:00:01,15.51192637,0.0003266,70.0005,226.9399,278.5943,26.6974,0.00071763,0.00042165,0.0,0 STARLINK-5494,1 55650U 23021Y   23149.58334491  .00042165  00000-0  71763-3 0  9990,2 55650  70.0005 226.9399 0003266 278.5943  26.6974 15.51192637 16359,6791.38,92.832,415.463,411.027,0.0
55650.0,STARLINK-5494,PAYLOAD,2023-05-29 14:14:26,15.51978218,0.0012748,69.9992,226.9161,211.1024,148.941,-0.0028563,-0.00169525,0.0,0 STARLINK-5494,1 55650U 23021Y   23149.59336124 -.00169525  00000-0 -28563-2 0  9997,2 55650  69.9992 226.9161 0012748 211.1024 148.9410 15.51978218 16660,6789.088,92.785,419.608,402.298,0.0
55650.0,STARLINK-5494,PAYLOAD,2023-05-29 21:58:29,15.51834117,0.0003215,69.9983,226.03,293.9956,66.0894,-0.0019654,-0.00116435,0.0,0 STARLINK-5494,1 55650U 23021Y   23149.91561598 -.00116435  00000-0 -19654-2 0  9991,2 55650  69.9983 226.0300 0003215 293.9956  66.0894 15.51834117 16718,6789.508,92.793,413.556,409.19,0.0
55650.0,STARLINK-5494,PAYLOAD,2023-05-30 06:00:00,15.51421632,0.0003327,70.0006,225.1175,274.1655,152.8776,-0.011243,-0.00615975,0.0,0 STARLINK-5494,1 55650U 23021Y   23150.25001157 -.00615975  00000-0 -11243-1 0  9998,2 55650  70.0006 225.1175 0003327 274.1655 152.8776 15.51421632 16467,6790.711,92.818,414.836,410.317,0.0
55650.0,STARLINK-5494,PAYLOAD,2023-05-30 14:00:01,15.50952991,0.0003543,70.0004,224.2063,277.8445,210.102,-0.016447,-0.00872199,0.0,0 STARLINK-5494,1 55650U 23021Y   23150.58334491 -.00872199  00000-0 -16447-1 0  9998,2 55650  70.0004 224.2063 0003543 277.8445 210.1020 15.50952991 16510,6792.079,92.846,416.351,411.538,0.0
55650.0,STARLINK-5494,PAYLOAD,2023-05-31 00:00:02,15.50122415,0.0003632,70.0005,223.0682,268.5663,24.5952,-0.016391,-0.00846273,0.0,0 STARLINK-5494,1 55650U 23021Y   23151.00002315 -.00846273  00000-0 -16391-1 0  9995,2 55650  70.0005 223.0682 0003632 268.5663  24.5952 15.50122415  1305,6794.505,92.896,418.838,413.903,0.0
